COMMENT,ORIGINATOR,NORAD_CAT_ID,OBJECT_NAME,OBJECT_TYPE,CLASSIFICATION_TYPE,INTLDES,EPOCH,EPOCH_MICROSECONDS,MEAN_MOTION,ECCENTRICITY,INCLINATION,RA_OF_ASC_NODE,ARG_OF_PERICENTER,MEAN_ANOMALY,EPHEMERIS_TYPE,ELEMENT_SET_NO,REV_AT_EPOCH,BSTAR,MEAN_MOTION_DOT,MEAN_MOTION_DDOT,FILE,TLE_LINE0,TLE_LINE1,TLE_LINE2,OBJECT_ID,OBJECT_NUMBER,SEMIMAJOR_AXIS,PERIOD,APOGEE,PERIGEE,DECAYED
"GENERATED VIA SPACETRACK.ORG API","18 SPCS","48886","SPACEBEE-102","PAYLOAD","U","21059H","2023-09-28 16:23:48","149952","15.39375894","0.0005284","97.6053","51.4767","265.5476","94.5165","0","999","12525","0.0015831","0.00062251","0","4019279","0 SPACEBEE-102","1 48886U 21059H   23271.68319618  .00062251  00000-0  15831-2 0  9994","2 48886  97.6053  51.4767 0005284 265.5476  94.5165 15.39375894125259","2021-059H","48886","6826.091","93.544","451.563","444.349","0"
"GENERATED VIA SPACETRACK.ORG API","18 SPCS","48886","SPACEBEE-102","PAYLOAD","U","21059H","2023-09-28 21:04:36","902496","15.3939953","0.0005282","97.6053","51.6791","265.1593","94.9049","0","999","12528","0.0014413","0.0005667","0","4019377","0 SPACEBEE-102","1 48886U 21059H   23271.87820489  .00056670  00000-0  14413-2 0  9991","2 48886  97.6053  51.6791 0005282 265.1593  94.9049 15.39399530125283","2021-059H","48886","6826.021","93.543","451.491","444.280","0"
"GENERATED VIA SPACETRACK.ORG API","18 SPCS","48886","SPACEBEE-102","PAYLOAD","U","21059H","2023-09-29 14:14:13","308576","15.39494226","0.0005211","97.6058","52.4216","262.3615","97.7038","0","999","12539","0.0017991","0.00071111","0","4020020","0 SPACEBEE-102","1 48886U 21059H   23272.59320959  .00071111  00000-0  17991-2 0  9999","2 48886  97.6058  52.4216 0005211 262.3615  97.7038 15.39494226125394","2021-059H","48886","6825.741","93.537","451.163","444.049","0"
"GENERATED VIA SPACETRACK.ORG API","18 SPCS","48886","SPACEBEE-102","PAYLOAD","U","21059H","2023-09-29 17:21:24","969024","15.3951208","0.0005219","97.6059","52.5566","262.3529","97.7124","0","999","12541","0.0018194","0.00071965","0","4020215","0 SPACEBEE-102","1 48886U 21059H   23272.72320566  .00071965  00000-0  18194-2 0  9991","2 48886  97.6059  52.5566 0005219 262.3529  97.7124 15.39512080125414","2021-059H","48886","6825.688","93.536","451.115","443.991","0"
"GENERATED VIA SPACETRACK.ORG API","18 SPCS","48886","SPACEBEE-102","PAYLOAD","U","21059H","2023-09-29 22:02:12","185376","15.39540181","0.0005238","97.6059","52.759","261.7098","98.3553","0","999","12544","0.0016257","0.00064289","0","4020886","0 SPACEBEE-102","1 48886U 21059H   23272.91819659  .00064289  00000-0  16257-2 0  9997","2 48886  97.6059  52.7590 0005238 261.7098  98.3553 15.39540181125447","2021-059H","48886","6825.605","93.534","451.045","443.895","0"
"GENERATED VIA SPACETRACK.ORG API","18 SPCS","48886","SPACEBEE-102","PAYLOAD","U","21059H","2023-09-30 15:11:42","940032","15.39632154","0.0005262","97.6061","53.5017","259.3769","100.6883","0","999","12555","0.0016016","0.0006352","0","4021070","0 SPACEBEE-102","1 48886U 21059H   23273.63313588  .00063520  00000-0  16016-2 0  9997","2 48886  97.6061  53.5017 0005262 259.3769 100.6883 15.39632154125555","2021-059H","48886","6825.333","93.529","450.790","443.607","0"
"GENERATED VIA SPACETRACK.ORG API","18 SPCS","48886","SPACEBEE-102","PAYLOAD","U","21059H","2023-09-30 22:59:39","141024","15.3968786","0.0005308","97.6061","53.8391","259.2667","100.7981","0","999","12560","0.0016863","0.00067037","0","4021442","0 SPACEBEE-102","1 48886U 21059H   23273.95809191  .00067037  00000-0  16863-2 0  9999","2 48886  97.6061  53.8391 0005308 259.2667 100.7981 15.39687860125600","2021-059H","48886","6825.169","93.525","450.656","443.411","0"
"GENERATED VIA SPACETRACK.ORG API","18 SPCS","48886","SPACEBEE-102","PAYLOAD","U","21059H","2023-10-01 08:21:09","418752","15.39751196","0.0005307","97.6064","54.2439","257.263","102.8022","0","999","12566","0.0019025","0.00075887","0","4021853","0 SPACEBEE-102","1 48886U 21059H   23274.34802568  .00075887  00000-0  19025-2 0  9999","2 48886  97.6064  54.2439 0005307 257.2630 102.8022 15.39751196125667","2021-059H","48886","6824.981","93.522","450.468","443.224","0"
"GENERATED VIA SPACETRACK.ORG API","18 SPCS","48886","SPACEBEE-102","PAYLOAD","U","21059H","2023-10-01 16:09:03","721536","15.39792143","0.0005207","97.6067","54.5817","257.4778","102.5885","0","999","12571","0.0018495","0.00073848","0","4022077","0 SPACEBEE-102","1 48886U 21059H   23274.67295974  .00073848  00000-0  18495-2 0  9997","2 48886  97.6067  54.5817 0005207 257.4778 102.5885 15.39792143125714","2021-059H","48886","6824.860","93.519","450.279","443.172","0"
"GENERATED VIA SPACETRACK.ORG API","18 SPCS","48886","SPACEBEE-102","PAYLOAD","U","21059H","2023-10-01 20:49:47","852544","15.39824615","0.0005196","97.6066","54.7844","257.3404","102.726","0","999","12574","0.001791","0.00071565","0","4022139","0 SPACEBEE-102","1 48886U 21059H   23274.86791496  .00071565  00000-0  17910-2 0  9993","2 48886  97.6066  54.7844 0005196 257.3404 102.7260 15.39824615125749","2021-059H","48886","6824.764","93.517","450.176","443.083","0"
"GENERATED VIA SPACETRACK.ORG API","18 SPCS","48886","SPACEBEE-102","PAYLOAD","U","21059H","2023-10-02 20:13:23","811744","15.39967862","0.0005218","97.6066","55.7971","254.2944","105.7726","0","999","12589","0.0018245","0.00073264","0","4022981","0 SPACEBEE-102","1 48886U 21059H   23275.84263671  .00073264  00000-0  18245-2 0  9991","2 48886  97.6066  55.7971 0005218 254.2944 105.7726 15.39967862125899","2021-059H","48886","6824.341","93.508","449.767","442.645","0"
"GENERATED VIA SPACETRACK.ORG API","18 SPCS","48886","SPACEBEE-102","PAYLOAD","U","21059H","2023-10-02 20:13:23","811744","15.39967862","0.0005218","97.6066","55.7971","254.2944","105.7726","0","999","12589","0.0018245","0.00073264","0","4023120","0 SPACEBEE-102","1 48886U 21059H   23275.84263671  .00073264  00000-0  18245-2 0  9991","2 48886  97.6066  55.7971 0005218 254.2944 105.7726 15.39967862125899","2021-059H","48886","6824.341","93.508","449.767","442.645","0"
"GENERATED VIA SPACETRACK.ORG API","18 SPCS","48886","SPACEBEE-102","PAYLOAD","U","21059H","2023-10-03 14:56:10","999392","15.40078511","0.0005218","97.6066","56.6075","251.8075","108.2602","0","999","12601","0.0018323","0.00073851","0","4023690","0 SPACEBEE-102","1 48886U 21059H   23276.62234953  .00073851  00000-0  18323-2 0  9998","2 48886  97.6066  56.6075 0005218 251.8075 108.2602 15.40078511126014","2021-059H","48886","6824.014","93.502","449.440","442.319","0"
"GENERATED VIA SPACETRACK.ORG API","18 SPCS","48886","SPACEBEE-102","PAYLOAD","U","21059H","2023-10-03 21:10:25","607712","15.40122398","0.000522","97.6066","56.8777","251.8665","108.2013","0","999","12605","0.0018731","0.00075624","0","4023936","0 SPACEBEE-102","1 48886U 21059H   23276.88224083  .00075624  00000-0  18731-2 0  9992","2 48886  97.6066  56.8777 0005220 251.8665 108.2013 15.40122398126056","2021-059H","48886","6823.885","93.499","449.312","442.188","0"
"GENERATED VIA SPACETRACK.ORG API","18 SPCS","48886","SPACEBEE-102","PAYLOAD","U","21059H","2023-10-03 22:43:59","158272","15.40133002","0.0005227","97.6066","56.9451","251.6487","108.419","0","999","12606","0.0018637","0.00075267","0","4024132","0 SPACEBEE-102","1 48886U 21059H   23276.94721248  .00075267  00000-0  18637-2 0  9992","2 48886  97.6066  56.9451 0005227 251.6487 108.4190 15.40133002126066","2021-059H","48886","6823.853","93.498","449.285","442.152","0"
"GENERATED VIA SPACETRACK.ORG API","18 SPCS","48886","SPACEBEE-102","PAYLOAD","U","21059H","2023-10-04 08:05:19","666752","15.40198625","0.0005196","97.6066","57.35","249.5431","110.5256","0","999","12612","0.0018778","0.00076007","0","4024487","0 SPACEBEE-102","1 48886U 21059H   23277.33703318  .00076007  00000-0  18778-2 0  9993","2 48886  97.6066  57.3500 0005196 249.5431 110.5256 15.40198625126122","2021-059H","48886","6823.660","93.494","449.070","441.979","0"
"GENERATED VIA SPACETRACK.ORG API","18 SPCS","48886","SPACEBEE-102","PAYLOAD","U","21059H","2023-10-04 15:53:05","693280","15.40249693","0.0005129","97.6065","57.6881","249.0758","110.9939","0","999","12617","0.0020878","0.00084754","0","4024694","0 SPACEBEE-102","1 48886U 21059H   23277.66187145  .00084754  00000-0  20878-2 0  9995","2 48886  97.6065  57.6881 0005129 249.0758 110.9939 15.40249693126178","2021-059H","48886","6823.509","93.491","448.874","441.874","0"
"GENERATED VIA SPACETRACK.ORG API","18 SPCS","48886","SPACEBEE-102","PAYLOAD","U","21059H","2023-10-04 20:33:44","826912","15.40283234","0.0005122","97.6064","57.8908","248.9954","111.0744","0","999","12620","0.0019951","0.00081037","0","4024820","0 SPACEBEE-102","1 48886U 21059H   23277.85676883  .00081037  00000-0  19951-2 0  9999","2 48886  97.6064  57.8908 0005122 248.9954 111.0744 15.40283234126207","2021-059H","48886","6823.410","93.489","448.770","441.780","0"
"GENERATED VIA SPACETRACK.ORG API","18 SPCS","48886","SPACEBEE-102","PAYLOAD","U","21059H","2023-10-05 09:02:07","333728","15.40380285","0.0005142","97.6063","58.4307","246.9971","113.0733","0","999","12628","0.0021554","0.00087914","0","4025515","0 SPACEBEE-102","1 48886U 21059H   23278.37647377  .00087914  00000-0  21554-2 0  9995","2 48886  97.6063  58.4307 0005142 246.9971 113.0733 15.40380285126287","2021-059H","48886","6823.123","93.483","448.497","441.480","0"
"GENERATED VIA SPACETRACK.ORG API","18 SPCS","48886","SPACEBEE-102","PAYLOAD","U","21059H","2023-10-05 16:49:50","83968","15.40432072","0.0005119","97.6063","58.7686","247.2511","112.8194","0","999","12633","0.002229","0.00091111","0","4025716","0 SPACEBEE-102","1 48886U 21059H   23278.70127412  .00091111  00000-0  22290-2 0  9997","2 48886  97.6063  58.7686 0005119 247.2511 112.8194 15.40432072126334","2021-059H","48886","6822.970","93.480","448.328","441.343","0"
